STARLINK-31548          
1 59193U 24045R   26068.14428684 -.00002956  00000+0 -98027-4 0  9994
2 59193  43.0008  95.9930 0001226 264.6986  95.3726 15.27554730113074
GESAT GEN1              
1 62612U 25009D   26068.72662138  .00010041  00000+0  38326-3 0  9990
2 62612  97.4058 151.4598 0000888  98.3547 261.7793 15.26847505 63732
